[{"OBJECT_NAME":"STARLINK-3694","OBJECT_ID":"2022-025B","EPOCH":"2026-03-10T00:00:02.999808","MEAN_MOTION":15.13116065,"ECCENTRICITY":0.00013443,"INCLINATION":53.0809,"RA_OF_ASC_NODE":34.3645,"ARG_OF_PERICENTER":58.4211,"MEAN_ANOMALY":355.3419,"EPHEMERIS_TYPE":0,"CLASSIFICATION_TYPE":"U","NORAD_CAT_ID":51957,"ELEMENT_SET_NO":999,"REV_AT_EPOCH":578,"BSTAR":0.002964574,"MEAN_MOTION_DOT":0.00053212,"MEAN_MOTION_DDOT":0},{"OBJECT_NAME":"DIAPASON (D1-A)","OBJECT_ID":"1966-013A","EPOCH":"2026-03-09T00:43:39.063072","MEAN_MOTION":12.66429063,"ECCENTRICITY":0.11576775,"INCLINATION":34.0899,"RA_OF_ASC_NODE":31.7007,"ARG_OF_PERICENTER":132.081,"MEAN_ANOMALY":238.4274,"EPHEMERIS_TYPE":0,"CLASSIFICATION_TYPE":"U","NORAD_CAT_ID":2016,"ELEMENT_SET_NO":999,"REV_AT_EPOCH":72774,"BSTAR":0.00029088113,"MEAN_MOTION_DOT":1.01e-5,"MEAN_MOTION_DDOT":0}]
